{"fetched_at":"2026-03-30T06:02:59Z","count":15439,"tles":[{"name":"STARLINK-36339","line1":"1 67340U 26003G   26087.78055047  .00034647  00000+0  12631-2 0  9998","line2":"2 67340  43.0004 119.2441 0001325 278.5585  81.5116 15.27568711 11744","category":"Starlink"}]}