{
  "norad_id": 67340,
  "name": "STARLINK-36339",
  "history": [
    {
      "epoch": "2026-03-28T18:43:59.560608Z",
      "apogee_km": 483.99242288491405,
      "perigee_km": 482.1733762651402,
      "latitude_deg": -2.4682657094835346e-05,
      "longitude_deg": 12.049822948287286,
      "height_km": 482.72424005669507,
      "semi_major_axis_km": 6861.219899575027,
      "eccentricity": 0.00013256,
      "inclination_deg": 43.0004,
      "raan_deg": 119.2441,
      "arg_perigee_deg": 278.5585,
      "mean_anomaly_deg": 81.5116,
      "mean_motion_rev_day": 15.27568711
    }
  ]
}